ORBCOMM FM103           
1 40091U 14040F   25154.48229435  .00000969  00000+0  24475-3 0  9995
2 40091  47.0058  82.5245 0002067 237.8640 122.2045 14.58155206562108
ORBCOMM FM114           
1 41179U 15081A   25154.57278834  .00000884  00000+0  22628-3 0  9990
2 41179  47.0042 351.1537 0002552 281.4030  78.6569 14.58196488502482
ORBCOMM FM105           
1 41181U 15081C   25154.60231392  .00000404  00000+0  15891-3 0  9997
2 41181  47.0016 263.9492 0002522 256.3721 103.6879 14.45214227498789
ORBCOMM FM118           
1 41183U 15081E   25153.98325297  .00001086  00000+0  26855-3 0  9996
2 41183  47.0054 353.7485 0003544  85.8237 274.3053 14.58407670502376
ORBCOMM FM112           
1 41184U 15081F   25154.46780405  .00001338  00000+0  32381-3 0  9998
2 41184  46.9991 260.1082 0001962 274.2887  85.7774 14.58158260503661
